[{"OBJECT_NAME":"SATGUS","OBJECT_ID":"2025-009DJ","EPOCH":"2026-03-09T16:57:39.644640","MEAN_MOTION":14.99840473,"ECCENTRICITY":0.00056702,"INCLINATION":97.7097,"RA_OF_ASC_NODE":150.9679,"ARG_OF_PERICENTER":96.3538,"MEAN_ANOMALY":263.8332,"EPHEMERIS_TYPE":0,"CLASSIFICATION_TYPE":"U","NORAD_CAT_ID":62713,"ELEMENT_SET_NO":999,"REV_AT_EPOCH":6264,"BSTAR":0.00076063433,"MEAN_MOTION_DOT":9.37e-5,"MEAN_MOTION_DDOT":0},{"OBJECT_NAME":"STARLINK-33961","OBJECT_ID":"2025-102AB","EPOCH":"2026-03-09T12:04:41.060064","MEAN_MOTION":14.98362597,"ECCENTRICITY":0.00027971,"INCLINATION":70.0017,"RA_OF_ASC_NODE":114.9515,"ARG_OF_PERICENTER":251.6237,"MEAN_ANOMALY":108.4618,"EPHEMERIS_TYPE":0,"CLASSIFICATION_TYPE":"U","NORAD_CAT_ID":64047,"ELEMENT_SET_NO":999,"REV_AT_EPOCH":4580,"BSTAR":-0.0019274743,"MEAN_MOTION_DOT":-0.00023035,"MEAN_MOTION_DDOT":0}]
